OBJECT_NAME,OBJECT_ID,EPOCH,MEAN_MOTION,ECCENTRICITY,INCLINATION,RA_OF_ASC_NODE,ARG_OF_PERICENTER,MEAN_ANOMALY,EPHEMERIS_TYPE,CLASSIFICATION_TYPE,NORAD_CAT_ID,ELEMENT_SET_NO,REV_AT_EPOCH,BSTAR,MEAN_MOTION_DOT,MEAN_MOTION_DDOT
INTELSAT 23 (IS-23),2012-057A,2026-07-04T08:30:13.601376,1.00266390,.0000499,0.0158,22.2071,191.2104,143.4564,0,U,38867,999,5012,0,-.273E-5,0
FM-6,2013-058A,2026-07-02T16:51:02.864736,1.00271889,.00019604,0.0160,40.7600,138.6453,237.7772,0,U,39360,999,4622,0,-.5E-7,0
INTELSAT 30 (IS-30),2014-062A,2026-07-02T13:31:51.138048,1.00277454,.00014443,0.0214,49.9436,357.0524,341.5175,0,U,40271,999,694,0,-.141E-5,0
DIRECTV 14,2014-078B,2026-07-02T10:05:17.774304,1.00271936,.0000293,0.0102,26.2148,2.4668,303.8682,0,U,40333,999,4219,0,-.115E-5,0
DIRECTV 15,2015-026A,2026-07-02T16:54:47.505600,1.00269040,.00004838,0.0175,66.4844,341.1134,23.9506,0,U,40663,999,4061,0,-.91E-6,0
SKY MEXICO-1,2015-026B,2026-07-04T20:36:13.586112,1.00272502,.00024688,0.0154,64.0775,57.5228,31.5279,0,U,40664,999,4063,0,-.222E-5,0
INTELSAT 34 (IS-34),2015-039A,2026-07-02T13:42:57.573216,1.00269667,.0000469,0.0108,13.9056,22.0921,34.8455,0,U,40874,999,3978,0,-.275E-5,0
INTELSAT 31 (IS-31),2016-035A,2026-07-02T13:31:51.138048,1.00274605,.00005661,0.0275,259.9848,356.1386,132.3882,0,U,41581,999,3683,0,-.141E-5,0
INTELSAT 36 (IS-36),2016-053A,2026-07-02T19:50:53.671776,1.00270238,.00020071,0.0098,12.9079,336.4355,297.7405,0,U,41747,999,3611,0,-.13E-6,0
INTELSAT 32E (IS-32E),2017-007B,2026-07-02T10:21:16.242336,1.00263397,.00009542,0.0218,28.0694,325.1520,39.3916,0,U,41945,999,3437,0,0,0
INTELSAT 35E (IS-35E),2017-041A,2026-07-04T22:16:41.548224,1.00273142,.00019132,0.0191,35.8010,62.8304,123.9819,0,U,42818,999,3299,0,-.225E-5,0
INTELSAT 37E (IS-37E),2017-059A,2026-07-04T22:21:26.092800,1.00272574,.00027453,0.0182,45.2451,59.4388,135.6160,0,U,42950,999,3224,0,-.128E-5,0
AZERSPACE 2 (IS-38),2018-074A,2026-07-02T19:19:43.771008,1.00276723,.00018855,0.0228,36.6472,74.6484,144.5914,0,U,43632,999,2860,0,0,0
HORIZONS-3E,2018-074B,2026-07-02T16:29:49.898112,1.00271230,.00006023,0.0166,197.9110,85.7941,53.4880,0,U,43633,999,2849,0,-.2E-6,0
AT&T T-16,2019-034A,2026-07-02T16:54:54.993888,1.00271130,.00006296,0.0156,62.5128,281.1843,89.9134,0,U,44333,999,2578,0,-.104E-5,0
INTELSAT 39 (IS-39),2019-049B,2026-07-02T20:52:37.700256,1.00268633,.00005929,0.0212,29.7717,309.6573,316.5859,0,U,44476,999,2528,0,0,0
GALAXY 30 (G-30),2020-056C,2026-07-04T18:25:17.444064,1.00271730,.0001984,0.0222,38.3019,69.3110,326.4938,0,U,46114,999,2146,0,0,0
GALAXY 33 (G-33),2022-128A,2026-07-04T12:15:38.875104,1.00271368,.00019945,0.0163,54.3659,45.0619,234.0055,0,U,54026,999,1391,0,.91E-6,0
GALAXY 34 (G-34),2022-128B,2026-07-02T20:24:26.441856,1.00268570,.00019557,0.0130,31.8533,68.7137,357.4298,0,U,54027,999,1407,0,.7E-6,0
GALAXY 31 (G-31),2022-153A,2026-07-04T15:01:27.645024,1.00272338,.00014695,0.0205,90.7610,12.9255,283.3084,0,U,54243,999,730,0,.26E-6,0
GALAXY 32 (G-32),2022-153B,2026-07-02T13:32:58.530048,1.00272409,.0001988,0.0105,15.3279,35.2758,342.2488,0,U,54244,999,1329,0,-.164E-5,0
GALAXY 35 (G-35),2022-170A,2026-07-04T21:59:59.352288,1.00272313,.00021878,0.0159,85.5766,19.6367,54.6027,0,U,54741,999,1307,0,-.15E-5,0
GALAXY 36 (G-36),2022-170B,2026-07-04T22:01:14.231712,1.00271682,.00027636,0.0158,81.7396,14.6829,67.8122,0,U,54742,999,1295,0,-.172E-5,0
GALAXY 37 (G-37),2023-112A,2026-07-04T18:24:54.980064,1.00270417,.00019144,0.0201,30.4834,81.9198,319.6004,0,U,57493,999,1071,0,0,0
